{
  "norad_id": 64114,
  "name": "STARLINK-34064",
  "history": [
    {
      "epoch": "2026-03-28T20:11:05.984736",
      "apogee_km": 475.8710553414212,
      "perigee_km": 474.5209487400198,
      "latitude_deg": 49.52574472902846,
      "longitude_deg": -47.86001696018502,
      "semi_major_axis_km": 6853.33300204072,
      "eccentricity": 9.85e-05,
      "inclination_deg": 53.162,
      "raan_deg": 297.8764,
      "arg_perigee_deg": 79.359,
      "mean_anomaly_deg": 280.7522,
      "mean_motion_rev_day": 15.30206386
    }
  ]
}